#aV2012  2 22  0  0   .00000000      96 DD+AD WGS84 FIT  NGA
## 1676 259200.00000000   900.00000000 55979  .0000000000000
+   32     1  2  3  4  5  6  7  8  9 10 11 12 13 14 15 16 17
+         18 19 20 21 22 23 24 25 26 27 28 29 30 31 32  0  0
+          0  0  0  0  0  0  0  0  0  0  0  0  0  0  0  0  0
+          0  0  0  0  0  0  0  0  0  0  0  0  0  0  0  0  0
+          0  0  0  0  0  0  0  0  0  0  0  0  0  0  0  0  0
++         2  2  2  2  2  2  2  2  2  2  2  2  2  2  2  2  2
++         2  2  2  2  2  2  2  2  2  2  2  2  2  2  2  0  0
++         0  0  0  0  0  0  0  0  0  0  0  0  0  0  0  0  0
++         0  0  0  0  0  0  0  0  0  0  0  0  0  0  0  0  0
++         0  0  0  0  0  0  0  0  0  0  0  0  0  0  0  0  0
%c cc cc ccc ccc cccc cccc cccc cccc ccccc ccccc ccccc ccccc
%c cc cc ccc ccc cccc cccc cccc cccc ccccc ccccc ccccc ccccc
%f  0.0000000  0.000000000  0.00000000000  0.000000000000000
%f  0.0000000  0.000000000  0.00000000000  0.000000000000000
%i    0    0    0    0      0      0      0      0         0
%i    0    0    0    0      0      0      0      0         0
/*      NGA, ST. LOUIS,MO.                                  
/*   EPHEMERIS COMPUTED FROM  3 DAYS OF DATA                
/* CCCCCCCCCCCCCCCCCCCCCCCCCCCCCCCCCCCCCCCCCCCCCCCCCCCCCCCCC
/* CCCCCCCCCCCCCCCCCCCCCCCCCCCCCCCCCCCCCCCCCCCCCCCCCCCCCCCCC
*  2012  2 22 10  0   .00000000                                                 
P  1  19126.237182   7509.553566  16825.340164    217.258234                    
V  1  10353.698845  18797.824515 -20125.036466       .091932                    
P  2 -13115.151300 -23223.935093   3077.432923    379.999226                    
V  2   4607.776278   1386.947407  30621.507380       .015506                    
P  3  13247.221434  12519.494816 -19864.624562     12.885203                    
V  3 -23599.971844   5792.683922 -12092.958402       .050651                    
P  4  -4149.821069 -22833.725971  12379.020470    101.592993                    
V  4  11596.751417  11853.135680  25581.190651       .114659                    
P  5  -6587.322593 -17234.957904 -19084.818837   -285.683899                    
V  5  12232.323140 -20998.799702  14883.110247      -.044235                    
P  6   8688.423284  14222.042242 -20599.642379     30.888350                    
V  6 -26223.900978   3822.982550  -8090.421473       .010560                    
P  7  13431.219301  -6556.087730 -21943.671106     58.990525                    
V  7  14947.649245  23507.237125   1887.555328       .028604                    
P  8   5209.791553 -17000.456629 -19462.145115       .670791                    
V  8  12641.242555  21546.341696 -15937.696909       .000988                    
P  9 -18997.139327 -11806.266637  13751.299720    140.175627                    
V  9  -8801.989737 -16220.110230 -25121.716441       .024508                    
P 10   8345.565661 -24411.167432  -5603.609518    -29.835020                    
V 10   6294.195099  -4474.029980  30592.305517      -.012496                    
P 11  22775.529311  10659.260405   8651.431477   -234.847608                    
V 11   5753.843888  10930.377947 -27104.834503      -.035877                    
P 12 -15833.080641   -740.059472  21284.865977     53.872552                    
V 12  12076.108990 -24156.057877   8325.467432       .021595                    
P 13  24012.889922  -5832.483088  -9992.488116    223.554398                    
V 13  12359.118563   2073.941094  28820.822815      -.021855                    
P 14  -7231.212853  14277.833269  21344.503050    194.731508                    
V 14 -26665.525176   -794.861878  -8704.187441       .012911                    
P 15 -24901.663618  -4226.402079  -8561.076179    -92.731228                    
V 15  10568.064428  -3672.315721 -28734.998883       .004615                    
P 16   5048.097503  17500.102180 -19199.217141   -224.468842                    
V 16 -12970.756252  20791.763996  15827.500606      -.016119                    
P 17  10269.795801 -14198.191885  20054.819039    147.161756                    
V 17  25185.229512    609.179171 -12806.644582      -.023729                    
P 18 -16913.519758  17887.922731  -9138.812590    182.805750                    
V 18   2260.797579 -12625.340988 -28212.661089       .018160                    
P 19  23126.785126   8181.863357 -10684.984775   -238.417838                    
V 19 -13447.035910   1775.620262 -27466.509092      -.038170                    
P 20  17447.121800  -3202.002479  19586.527587     62.423172                    
V 20  -9032.140212  23741.824714  11898.612747       .007674                    
P 21 -11202.387608  11161.348956 -20823.050005   -206.024538                    
V 21 -15727.150151 -22817.987049  -4276.387224      -.024949                    
P 22  -9131.229958  24526.495734   4322.842875    142.949078                    
V 22  -5884.573697   2937.865427 -30428.732999       .001022                    
P 23  26738.933699   -511.807161    959.692772    230.679955                    
V 23  -1061.806149   2540.452818  31498.210104      -.034245                    
P 24  -6271.562002  24475.642550  -8038.667201   -255.291008                    
V 24  -6695.647889   7894.407206  29876.521564       .003446                    
P 25 -17782.472470  12591.246431  15132.518126     31.796113                    
V 25   6735.693231 -18148.575923  23026.910747       .002329                    
P 26 -14805.604592 -12833.484137 -18724.692978    -46.015905                    
V 26  22337.698527   -170.702609 -17770.242909      -.614505                    
P 27 -19134.789978 -17049.031505   8457.238438    359.398158                    
V 27  -4439.178221  -8772.419095 -29546.396230       .039247                    
P 28  11537.334936 -23713.501273   2359.679115    115.299015                    
V 28   3276.922407   -835.175952 -32090.927784       .037864                    
P 29 -24781.922707   5629.776535  -7581.114538    287.048252                    
V 29  -9762.561479  -2478.105654  29845.491063       .036117                    
P 30   -144.213137  23888.756840 -11951.070182    -54.565082                    
V 30  -7414.504136  12838.973805  26548.434217      -.150200                    
P 31   4696.848276  22963.702735  12454.361901    211.167544                    
V 31  -9950.566884 -12106.602535  26733.658350       .045744                    
P 32  13891.603525   6973.453522  21740.592323   -410.904000                    
V 32 -13949.805086  23277.989347   1925.185897      -.052166                    
EOF
